STARLINK-6327           
1 56522U 23065V   26176.80921256 -.00001011  00000+0 -27240-4 0  9994
2 56522  43.0033 322.0008 0001639 265.9473  94.1191 15.27556226173136
STARLINK-6366           
1 57380U 23099BE  26176.68995725  .00000172  00000+0  15784-4 0  9997
2 57380  43.0029 322.5705 0001392 266.3529  93.7163 15.27580005163782
STARLINK-35479          
1 66326U 25253H   26176.70662911  .00018565  00000+0  68195-3 0  9990
2 66326  43.0014 322.5398 0003115 286.0326  74.0183 15.27602819 36762
STARLINK-35512          
1 66330U 25253M   26176.78229777  .00019530  00000+0  71664-3 0  9990
2 66330  43.0016 322.2520 0001474 265.6797  94.3886 15.27612940 36776
STARLINK-35407          
1 66334U 25253R   26176.68350161  .00026205  00000+0  95790-3 0  9998
2 66334  43.0023 322.3694 0001786 272.6548  87.4099 15.27596888 36769
STARLINK-35467          
1 66343U 25253AA  26176.85153598  .00019667  00000+0  72150-3 0  9991
2 66343  43.0015 321.9080 0001577 260.7355  99.3318 15.27615517 36785
