{
  "schema": "int-temerity-real-tle-snapshot/v1",
  "source": "celestrak",
  "group": "STARLINK",
  "format": "celestrak-gp-json",
  "source_url": "https://celestrak.org/NORAD/elements/gp.php?NAME=STARLINK&FORMAT=JSON",
  "downloaded_at": "2026-06-26T09:52:00.103Z",
  "generated_at": "2026-06-26T09:52:00.244Z",
  "fingerprint": "ba85ff7c",
  "shell_id": "starlink-real-43deg-490km",
  "catalog_count": 10658,
  "shell_count": 3264,
  "selected_count": 64,
  "mean_altitude_km": 490.15,
  "mean_inclination_deg": 43.002,
  "mean_mean_motion_rev_per_day": 15.27590899,
  "layout": {
    "planes": 8,
    "satellites_per_plane": 8,
    "selection_strategy": "largest-shell-raan-clusters-even-slot-sampling",
    "raan_cluster_threshold_deg": 1.5
  },
  "satellites": [
    {
      "satellite_id": "P07-S01",
      "norad_id": 66326,
      "satellite_name": "STARLINK-35479",
      "cospar_id": "2025-253H",
      "shell_id": "starlink-real-43deg-490km",
      "plane_id": 6,
      "slot_id": 0,
      "epoch": "2026-06-25T16:57:32.755104",
      "inclination": 43.0014,
      "raan": 322.5398,
      "eccentricity": 0.0003115,
      "argument_of_perigee": 286.0326,
      "mean_anomaly": 74.01830000000001,
      "mean_motion": 15.27602819,
      "bstar": 0.00068195,
      "status": "active",
      "raw_omm": {
        "OBJECT_NAME": "STARLINK-35479",
        "OBJECT_ID": "2025-253H",
        "EPOCH": "2026-06-25T16:57:32.755104",
        "MEAN_MOTION": 15.27602819,
        "ECCENTRICITY": 0.0003115,
        "INCLINATION": 43.0014,
        "RA_OF_ASC_NODE": 322.5398,
        "ARG_OF_PERICENTER": 286.0326,
        "MEAN_ANOMALY": 74.0183,
        "EPHEMERIS_TYPE": 0,
        "CLASSIFICATION_TYPE": "U",
        "NORAD_CAT_ID": 66326,
        "ELEMENT_SET_NO": 999,
        "REV_AT_EPOCH": 3676,
        "BSTAR": 0.00068195,
        "MEAN_MOTION_DOT": 0.00018565,
        "MEAN_MOTION_DDOT": 0
      },
      "source": "celestrak",
      "source_url": "https://celestrak.org/NORAD/elements/gp.php?NAME=STARLINK&FORMAT=JSON",
      "catalog_fingerprint": "ba85ff7c"
    },
    {
      "satellite_id": "P07-S02",
      "norad_id": 66334,
      "satellite_name": "STARLINK-35407",
      "cospar_id": "2025-253R",
      "shell_id": "starlink-real-43deg-490km",
      "plane_id": 6,
      "slot_id": 1,
      "epoch": "2026-06-25T16:24:14.539104",
      "inclination": 43.0023,
      "raan": 322.36940000000004,
      "eccentricity": 0.0001786,
      "argument_of_perigee": 272.6548,
      "mean_anomaly": 87.4099,
      "mean_motion": 15.27596888,
      "bstar": 0.0009579,
      "status": "active",
      "raw_omm": {
        "OBJECT_NAME": "STARLINK-35407",
        "OBJECT_ID": "2025-253R",
        "EPOCH": "2026-06-25T16:24:14.539104",
        "MEAN_MOTION": 15.27596888,
        "ECCENTRICITY": 0.0001786,
        "INCLINATION": 43.0023,
        "RA_OF_ASC_NODE": 322.3694,
        "ARG_OF_PERICENTER": 272.6548,
        "MEAN_ANOMALY": 87.4099,
        "EPHEMERIS_TYPE": 0,
        "CLASSIFICATION_TYPE": "U",
        "NORAD_CAT_ID": 66334,
        "ELEMENT_SET_NO": 999,
        "REV_AT_EPOCH": 3676,
        "BSTAR": 0.0009579,
        "MEAN_MOTION_DOT": 0.00026205,
        "MEAN_MOTION_DDOT": 0
      },
      "source": "celestrak",
      "source_url": "https://celestrak.org/NORAD/elements/gp.php?NAME=STARLINK&FORMAT=JSON",
      "catalog_fingerprint": "ba85ff7c"
    },
    {
      "satellite_id": "P07-S03",
      "norad_id": 56522,
      "satellite_name": "STARLINK-6327",
      "cospar_id": "2023-065V",
      "shell_id": "starlink-real-43deg-490km",
      "plane_id": 6,
      "slot_id": 2,
      "epoch": "2026-06-25T19:25:15.965184",
      "inclination": 43.0033,
      "raan": 322.0008,
      "eccentricity": 0.0001639,
      "argument_of_perigee": 265.94730000000004,
      "mean_anomaly": 94.1191,
      "mean_motion": 15.27556226,
      "bstar": -0.00002724,
      "status": "active",
      "raw_omm": {
        "OBJECT_NAME": "STARLINK-6327",
        "OBJECT_ID": "2023-065V",
        "EPOCH": "2026-06-25T19:25:15.965184",
        "MEAN_MOTION": 15.27556226,
        "ECCENTRICITY": 0.0001639,
        "INCLINATION": 43.0033,
        "RA_OF_ASC_NODE": 322.0008,
        "ARG_OF_PERICENTER": 265.9473,
        "MEAN_ANOMALY": 94.1191,
        "EPHEMERIS_TYPE": 0,
        "CLASSIFICATION_TYPE": "U",
        "NORAD_CAT_ID": 56522,
        "ELEMENT_SET_NO": 999,
        "REV_AT_EPOCH": 17313,
        "BSTAR": -0.00002724,
        "MEAN_MOTION_DOT": -0.00001011,
        "MEAN_MOTION_DDOT": 0
      },
      "source": "celestrak",
      "source_url": "https://celestrak.org/NORAD/elements/gp.php?NAME=STARLINK&FORMAT=JSON",
      "catalog_fingerprint": "ba85ff7c"
    },
    {
      "satellite_id": "P07-S04",
      "norad_id": 66343,
      "satellite_name": "STARLINK-35467",
      "cospar_id": "2025-253AA",
      "shell_id": "starlink-real-43deg-490km",
      "plane_id": 6,
      "slot_id": 3,
      "epoch": "2026-06-25T20:26:12.708672",
      "inclination": 43.0015,
      "raan": 321.908,
      "eccentricity": 0.0001577,
      "argument_of_perigee": 260.7355,
      "mean_anomaly": 99.33179999999999,
      "mean_motion": 15.27615517,
      "bstar": 0.0007215,
      "status": "active",
      "raw_omm": {
        "OBJECT_NAME": "STARLINK-35467",
        "OBJECT_ID": "2025-253AA",
        "EPOCH": "2026-06-25T20:26:12.708672",
        "MEAN_MOTION": 15.27615517,
        "ECCENTRICITY": 0.0001577,
        "INCLINATION": 43.0015,
        "RA_OF_ASC_NODE": 321.908,
        "ARG_OF_PERICENTER": 260.7355,
        "MEAN_ANOMALY": 99.3318,
        "EPHEMERIS_TYPE": 0,
        "CLASSIFICATION_TYPE": "U",
        "NORAD_CAT_ID": 66343,
        "ELEMENT_SET_NO": 999,
        "REV_AT_EPOCH": 3678,
        "BSTAR": 0.0007215,
        "MEAN_MOTION_DOT": 0.00019667,
        "MEAN_MOTION_DDOT": 0
      },
      "source": "celestrak",
      "source_url": "https://celestrak.org/NORAD/elements/gp.php?NAME=STARLINK&FORMAT=JSON",
      "catalog_fingerprint": "ba85ff7c"
    },
    {
      "satellite_id": "P07-S05",
      "norad_id": 66330,
      "satellite_name": "STARLINK-35512",
      "cospar_id": "2025-253M",
      "shell_id": "starlink-real-43deg-490km",
      "plane_id": 6,
      "slot_id": 4,
      "epoch": "2026-06-25T18:46:30.527328",
      "inclination": 43.0016,
      "raan": 322.25199999999995,
      "eccentricity": 0.0001474,
      "argument_of_perigee": 265.6797,
      "mean_anomaly": 94.3886,
      "mean_motion": 15.2761294,
      "bstar": 0.00071664,
      "status": "active",
      "raw_omm": {
        "OBJECT_NAME": "STARLINK-35512",
        "OBJECT_ID": "2025-253M",
        "EPOCH": "2026-06-25T18:46:30.527328",
        "MEAN_MOTION": 15.2761294,
        "ECCENTRICITY": 0.0001474,
        "INCLINATION": 43.0016,
        "RA_OF_ASC_NODE": 322.252,
        "ARG_OF_PERICENTER": 265.6797,
        "MEAN_ANOMALY": 94.3886,
        "EPHEMERIS_TYPE": 0,
        "CLASSIFICATION_TYPE": "U",
        "NORAD_CAT_ID": 66330,
        "ELEMENT_SET_NO": 999,
        "REV_AT_EPOCH": 3677,
        "BSTAR": 0.00071664,
        "MEAN_MOTION_DOT": 0.0001953,
        "MEAN_MOTION_DDOT": 0
      },
      "source": "celestrak",
      "source_url": "https://celestrak.org/NORAD/elements/gp.php?NAME=STARLINK&FORMAT=JSON",
      "catalog_fingerprint": "ba85ff7c"
    },
    {
      "satellite_id": "P07-S06",
      "norad_id": 57380,
      "satellite_name": "STARLINK-6366",
      "cospar_id": "2023-099BE",
      "shell_id": "starlink-real-43deg-490km",
      "plane_id": 6,
      "slot_id": 5,
      "epoch": "2026-06-25T16:33:32.306400",
      "inclination": 43.0029,
      "raan": 322.57050000000004,
      "eccentricity": 0.0001392,
      "argument_of_perigee": 266.3529,
      "mean_anomaly": 93.71629999999999,
      "mean_motion": 15.27580005,
      "bstar": 0.000015784,
      "status": "active",
      "raw_omm": {
        "OBJECT_NAME": "STARLINK-6366",
        "OBJECT_ID": "2023-099BE",
        "EPOCH": "2026-06-25T16:33:32.306400",
        "MEAN_MOTION": 15.27580005,
        "ECCENTRICITY": 0.0001392,
        "INCLINATION": 43.0029,
        "RA_OF_ASC_NODE": 322.5705,
        "ARG_OF_PERICENTER": 266.3529,
        "MEAN_ANOMALY": 93.7163,
        "EPHEMERIS_TYPE": 0,
        "CLASSIFICATION_TYPE": "U",
        "NORAD_CAT_ID": 57380,
        "ELEMENT_SET_NO": 999,
        "REV_AT_EPOCH": 16378,
        "BSTAR": 0.000015784,
        "MEAN_MOTION_DOT": 0.00000172,
        "MEAN_MOTION_DDOT": 0
      },
      "source": "celestrak",
      "source_url": "https://celestrak.org/NORAD/elements/gp.php?NAME=STARLINK&FORMAT=JSON",
      "catalog_fingerprint": "ba85ff7c"
    }
  ]
}